     3.00           N                   E                   RINEX VERSION / TYPE
BRD_USR             ESA                 20190111 051659  UTCPGM / RUN BY / DATE
 GAL   4.4500E+01  3.5156E-02 -2.0142E-03  0.0000E+00       IONOSPHERIC CORR
GAUT  3.7252902985E-09-1.776356839E-15 432000 2035 GSTB   0 TIME SYSTEM CORR
GPGA -2.8812792152E-09-7.993605777E-15 432000 2035 GSTB   0 TIME SYSTEM CORR
                                                            END OF HEADER
E07 2019 01 11 03 10 00-1.103319809772E-04-7.020162229310E-12 0.000000000000E+00
     9.900000000000E+01 3.093750000000E+00 3.163703209509E-09-7.953975390887E-01
     1.024454832077E-07 1.359872985631E-04 1.045688986778E-05 5.440622806549E+03
     4.434000000000E+05 1.862645149231E-08 1.242106112374E+00-2.235174179077E-08
     9.524632924792E-01 1.130000000000E+02-3.172695392069E-02-5.537016353242E-09
     3.178703834345E-10 2.580000000000E+02 2.035000000000E+03 0.000000000000E+00
     3.120000000000E+00 0.000000000000E+00 2.328306436539E-10 0.000000000000E+00
     4.441000000000E+05 0.000000000000E+00 0.000000000000E+00 0.000000000000E+00
E08 2019 01 11 03 10 00 6.425797706470E-03-7.489120434911E-12 0.000000000000E+00
     9.900000000000E+01-1.312500000000E+00 3.017625696223E-09-4.871930946451E-01
    -2.421438694000E-08 2.153406385332E-04 1.040473580360E-05 5.440622827530E+03
     4.434000000000E+05 4.470348358154E-08 1.233486913578E+00-9.313225746155E-09
     9.584070013614E-01 1.169687500000E+02 4.466823987548E-01-5.453441443440E-09
     3.785871982478E-10 2.580000000000E+02 2.035000000000E+03 0.000000000000E+00
     3.120000000000E+00 0.000000000000E+00-8.381903171539E-09 0.000000000000E+00
     4.441000000000E+05 0.000000000000E+00 0.000000000000E+00 0.000000000000E+00
E09 2019 01 11 03 10 00 6.561843736563E-03-1.131184035330E-11 0.000000000000E+00
     9.900000000000E+01-1.587500000000E+01 3.036912213869E-09 2.237348377169E+00
    -7.320195436478E-07 2.422836842015E-04 1.158937811852E-05 5.440623027802E+03
     4.434000000000E+05 6.146728992462E-08 1.233485114189E+00 1.303851604462E-08
     9.584370599392E-01 9.046875000000E+01 7.707137106339E-02-5.459513124921E-09
     3.342996392075E-10 2.580000000000E+02 2.035000000000E+03 0.000000000000E+00
     3.120000000000E+00 0.000000000000E+00-3.259629011154E-09 0.000000000000E+00
     4.441000000000E+05 0.000000000000E+00 0.000000000000E+00 0.000000000000E+00
E11 2019 01 11 03 10 00 5.719533073716E-03 8.952838470577E-13 0.000000000000E+00
     9.900000000000E+01 1.487500000000E+01 3.199776140663E-09-1.512019944443E+00
     7.878988981247E-07 2.671146066859E-04 1.691281795502E-06 5.440600534439E+03
     4.434000000000E+05 4.656612873077E-08-8.631803780589E-01-3.352761268616E-08
     9.819022235060E-01 3.143125000000E+02-3.611347091788E-01-5.923103863908E-09
     9.893269237232E-11 2.580000000000E+02 2.035000000000E+03 0.000000000000E+00
     3.120000000000E+00 0.000000000000E+00-1.862645149231E-08 0.000000000000E+00
     4.441000000000E+05 0.000000000000E+00 0.000000000000E+00 0.000000000000E+00
E12 2019 01 11 03 10 00 5.915815010667E-03 8.435563358944E-11 0.000000000000E+00
     9.900000000000E+01 1.115625000000E+01 3.165131840446E-09-2.029950963834E-01
     5.289912223816E-07 3.943793708459E-04 1.559033989906E-06 5.440600795746E+03
     4.434000000000E+05-9.313225746155E-09-8.631967627414E-01-1.676380634308E-08
     9.819169638686E-01 3.188437500000E+02-8.665226733475E-01-5.893816929704E-09
     8.964659128322E-11 2.580000000000E+02 2.035000000000E+03 0.000000000000E+00
     3.120000000000E+00 0.000000000000E+00-1.536682248116E-08 0.000000000000E+00
     4.441000000000E+05 0.000000000000E+00 0.000000000000E+00 0.000000000000E+00
E14 2019 01 11 03 10 00 6.461690412834E-03-5.613287612505E-12 0.000000000000E+00
     9.900000000000E+01 1.908437500000E+02 5.385581473943E-09-2.993938368613E+00
     7.998198270798E-06 1.662915024208E-01-6.426125764847E-07 5.289375951767E+03
     4.434000000000E+05 3.380700945854E-06-1.464754184823E+00-8.400529623032E-07
     8.826109905762E-01 3.475000000000E+02 1.456427622308E+00-6.107754412487E-09
     1.535778257043E-11 2.580000000000E+02 2.035000000000E+03 0.000000000000E+00
     3.120000000000E+00 5.600000000000E+01 3.282912075520E-08 0.000000000000E+00
     4.441000000000E+05 0.000000000000E+00 0.000000000000E+00 0.000000000000E+00
E15 2019 01 11 03 10 00 9.232930024154E-04-9.805489753489E-13 0.000000000000E+00
     9.900000000000E+01 6.093750000000E+00 3.034769267464E-09-2.602363602364E+00
     3.073364496231E-07 3.890751395375E-04 1.488253474236E-06 5.440597843170E+03
     4.434000000000E+05-5.029141902924E-08-8.684836140914E-01 6.705522537231E-08
     9.851020861646E-01 3.188750000000E+02-1.623639189489E+00-5.788812555850E-09
     1.075044779930E-10 2.580000000000E+02 2.035000000000E+03 0.000000000000E+00
     3.120000000000E+00 5.600000000000E+01 1.396983861923E-09 0.000000000000E+00
     4.441000000000E+05 0.000000000000E+00 0.000000000000E+00 0.000000000000E+00
E18 2019 01 11 03 10 00 5.615333968308E-03-2.842170943040E-11 0.000000000000E+00
     9.900000000000E+01 1.312500000000E+01 6.392766284376E-09 1.172682417673E-01
     7.860362529755E-07 1.663273187587E-01 9.490177035332E-06 5.289347036362E+03
     4.434000000000E+05-3.399327397346E-06-1.447607066005E+00-1.223757863045E-06
     8.817932749608E-01 1.860000000000E+02 1.441013050538E+00-1.085152343808E-08
     1.857220217820E-11 2.580000000000E+02 2.035000000000E+03 0.000000000000E+00
     3.120000000000E+00 5.600000000000E+01 1.420266926289E-08 0.000000000000E+00
     4.441000000000E+05 0.000000000000E+00 0.000000000000E+00 0.000000000000E+00
E19 2019 01 11 03 10 00-9.216601029038E-06 3.694822225953E-13 0.000000000000E+00
     9.900000000000E+01 1.165625000000E+01 2.953337304067E-09 1.572152323118E+00
     5.681067705154E-07 1.319368602708E-04 1.157633960247E-05 5.440622806549E+03
     4.434000000000E+05-5.960464477539E-08 1.238839653296E+00 8.754432201385E-08
     9.581929062264E-01 9.043750000000E+01 2.392454086584E+00-5.421654405097E-09
     3.896590880079E-10 2.580000000000E+02 2.035000000000E+03 0.000000000000E+00
     3.120000000000E+00 0.000000000000E+00-8.614733815193E-09 0.000000000000E+00
     4.441000000000E+05 0.000000000000E+00 0.000000000000E+00 0.000000000000E+00
E26 2019 01 11 03 10 00 5.033496010583E-03-4.327205260779E-11 0.000000000000E+00
     9.900000000000E+01-3.937500000000E+00 3.193704459181E-09 2.515221987469E+00
    -1.061707735062E-07 3.218365600333E-04 9.555369615555E-07 5.440604717255E+03
     4.434000000000E+05 2.421438694000E-08-8.595554821074E-01-2.048909664154E-08
     9.782613861362E-01 3.249062500000E+02-2.022251726924E+00-5.882745039944E-09
    -5.714523747137E-12 2.580000000000E+02 2.035000000000E+03 0.000000000000E+00
     3.120000000000E+00 0.000000000000E+00 1.164153218269E-09 0.000000000000E+00
     4.441000000000E+05 0.000000000000E+00 0.000000000000E+00 0.000000000000E+00
E27 2019 01 11 03 10 00 5.521600251086E-04-7.602807272633E-12 0.000000000000E+00
     9.900000000000E+01 5.250000000000E+00 2.720827619106E-09-2.049323896418E+00
     2.346932888031E-07 1.969423610717E-04 9.048730134964E-06 5.440630161285E+03
     4.434000000000E+05-6.705522537231E-08-2.951110912266E+00-1.117587089539E-08
     9.897262912156E-01 1.621250000000E+02-8.498429787998E-01-5.335936548889E-09
    -4.010881355022E-10 2.580000000000E+02 2.035000000000E+03 0.000000000000E+00
     3.120000000000E+00 0.000000000000E+00-3.026798367500E-09 0.000000000000E+00
     4.441000000000E+05 0.000000000000E+00 0.000000000000E+00 0.000000000000E+00
E33 2019 01 11 03 10 00 8.478973759338E-04 7.105427357601E-14 0.000000000000E+00
     9.900000000000E+01 3.343750000000E+00 3.054055785111E-09 1.143807462046E+00
     9.872019290924E-08 3.685823176056E-04 1.264736056328E-06 5.440594535828E+03
     4.434000000000E+05 1.490116119385E-08-8.685078824394E-01-4.470348358154E-08
     9.851409003070E-01 3.250937500000E+02-1.442437638700E+00-5.833814430359E-09
     4.750197864808E-11 2.580000000000E+02 2.035000000000E+03 0.000000000000E+00
     3.120000000000E+00 5.600000000000E+01-8.149072527885E-09 0.000000000000E+00
     4.441000000000E+05 0.000000000000E+00 0.000000000000E+00 0.000000000000E+00
E36 2019 01 11 03 10 00 7.610766915604E-04-4.447997525858E-12 0.000000000000E+00
     9.900000000000E+01 1.553125000000E+01 3.091557347201E-09-1.093490495651E+00
     7.115304470062E-07 3.340023104101E-04 1.825392246246E-06 5.440595157623E+03
     4.434000000000E+05-4.656612873077E-08-8.684803093595E-01-9.872019290924E-08
     9.851483363196E-01 3.089687500000E+02-1.559652974035E+00-5.860601260424E-09
     6.178828801592E-11 2.580000000000E+02 2.035000000000E+03 0.000000000000E+00
     3.120000000000E+00 5.600000000000E+01 9.313225746155E-10 0.000000000000E+00
     4.441000000000E+05 0.000000000000E+00 0.000000000000E+00 0.000000000000E+00
E08 2019 01 11 03 10 00 6.425797706470E-03-7.489120434911E-12 0.000000000000E+00
     9.900000000000E+01-1.312500000000E+00 3.017625696223E-09-4.871930946451E-01
    -2.421438694000E-08 2.153406385332E-04 1.040473580360E-05 5.440622827530E+03
     4.434000000000E+05 4.470348358154E-08 1.233486913578E+00-9.313225746155E-09
     9.584070013614E-01 1.169687500000E+02 4.466823987548E-01-5.453441443440E-09
     3.785871982478E-10 2.580000000000E+02 2.035000000000E+03 0.000000000000E+00
     3.120000000000E+00 0.000000000000E+00-8.381903171539E-09 0.000000000000E+00
     4.441500000000E+05 0.000000000000E+00 0.000000000000E+00 0.000000000000E+00
